[{"OBJECT_NAME":"SHIYAN-20B (SY-20B)","OBJECT_ID":"2022-169B","EPOCH":"2026-03-09T23:45:17.388576","MEAN_MOTION":14.29504375,"ECCENTRICITY":0.00224209,"INCLINATION":59.9961,"RA_OF_ASC_NODE":208.3414,"ARG_OF_PERICENTER":132.0718,"MEAN_ANOMALY":228.2229,"EPHEMERIS_TYPE":0,"CLASSIFICATION_TYPE":"U","NORAD_CAT_ID":54700,"ELEMENT_SET_NO":999,"REV_AT_EPOCH":16917,"BSTAR":0.00010959596,"MEAN_MOTION_DOT":1.45e-6,"MEAN_MOTION_DDOT":0},{"OBJECT_NAME":"DELTA 1 DEB","OBJECT_ID":"1975-004DG","EPOCH":"2026-03-09T21:13:31.643328","MEAN_MOTION":14.417672,"ECCENTRICITY":0.00613755,"INCLINATION":97.9732,"RA_OF_ASC_NODE":23.5789,"ARG_OF_PERICENTER":5.1762,"MEAN_ANOMALY":355.005,"EPHEMERIS_TYPE":0,"CLASSIFICATION_TYPE":"U","NORAD_CAT_ID":9042,"ELEMENT_SET_NO":999,"REV_AT_EPOCH":62534,"BSTAR":0.0001758547,"MEAN_MOTION_DOT":5.46e-6,"MEAN_MOTION_DDOT":0}]
